{
  "type": "FeatureCollection",
  "features": [
    {
      "type": "Feature",
      "properties": {
        "norad_id": 31516,
        "name": "FENGYUN 1C DEB",
        "group": "fengyun-1c-debris",
        "lat": -16.807297691180985,
        "lon": 99.15414133363275,
        "alt_km": 804.2445837134201,
        "timestamp": "2025-12-06T14:35:37.409491+00:00",
        "meta_object_name": "FENGYUN 1C DEB",
        "meta_object_id": "1999-025BXF",
        "meta_epoch": "2025-12-06T02:03:15.782112",
        "meta_mean_motion": 14.25384975,
        "meta_eccentricity": 0.01483224,
        "meta_inclination": 98.8325,
        "meta_ra_of_asc_node": 95.936,
        "meta_arg_of_pericenter": 257.9472,
        "meta_mean_anomaly": 283.9612,
        "meta_ephemeris_type": 0,
        "meta_classification_type": "U",
        "meta_norad_cat_id": 31516,
        "meta_element_set_no": 999,
        "meta_rev_at_epoch": 96397,
        "meta_bstar": 0.00078720784,
        "meta_mean_motion_dot": 2.035e-05,
        "meta_mean_motion_ddot": 0,
        "tle_line1": "1 31516U 99025BXF 25340.08559933  .00002035  00000+0  78721-3 0  9994",
        "tle_line2": "2 31516  98.8325  95.9360 0148322 257.9472 283.9612 14.25384975963974"
      },
      "geometry": {
        "type": "Point",
        "coordinates": [
          99.15414133363275,
          -16.807297691180985
        ]
      }
    },
    {
      "type": "Feature",
      "properties": {
        "norad_id": 31519,
        "name": "FENGYUN 1C DEB",
        "group": "fengyun-1c-debris",
        "lat": 34.75230359430953,
        "lon": 163.3245322284937,
        "alt_km": 828.0508272361576,
        "timestamp": "2025-12-06T14:35:37.409502+00:00",
        "meta_object_name": "FENGYUN 1C DEB",
        "meta_object_id": "1999-025BXJ",
        "meta_epoch": "2025-12-02T05:18:38.960928",
        "meta_mean_motion": 14.23363236,
        "meta_eccentricity": 0.0051768,
        "meta_inclination": 98.5732,
        "meta_ra_of_asc_node": 333.0436,
        "meta_arg_of_pericenter": 273.8971,
        "meta_mean_anomaly": 85.629,
        "meta_ephemeris_type": 0,
        "meta_classification_type": "U",
        "meta_norad_cat_id": 31519,
        "meta_element_set_no": 999,
        "meta_rev_at_epoch": 64615,
        "meta_bstar": 0.00061131,
        "meta_mean_motion_dot": 1.362e-05,
        "meta_mean_motion_ddot": 0,
        "tle_line1": "1 31519U 99025BXJ 25336.22128427  .00001362  00000+0  61131-3 0  9997",
        "tle_line2": "2 31519  98.5732 333.0436 0051768 273.8971  85.6290 14.23363236646156"
      },
      "geometry": {
        "type": "Point",
        "coordinates": [
          163.3245322284937,
          34.75230359430953
        ]
      }
    },
    {
      "type": "Feature",
      "properties": {
        "norad_id": 31522,
        "name": "FENGYUN 1C DEB",
        "group": "fengyun-1c-debris",
        "lat": -69.50641787090747,
        "lon": 23.281588532894176,
        "alt_km": 876.857134949807,
        "timestamp": "2025-12-06T14:35:37.409511+00:00",
        "meta_object_name": "FENGYUN 1C DEB",
        "meta_object_id": "1999-025BXM",
        "meta_epoch": "2025-12-06T08:05:32.875584",
        "meta_mean_motion": 14.03982207,
        "meta_eccentricity": 0.00430951,
        "meta_inclination": 98.7082,
        "meta_ra_of_asc_node": 358.8132,
        "meta_arg_of_pericenter": 218.6501,
        "meta_mean_anomaly": 141.158,
        "meta_ephemeris_type": 0,
        "meta_classification_type": "U",
        "meta_norad_cat_id": 31522,
        "meta_element_set_no": 999,
        "meta_rev_at_epoch": 94906,
        "meta_bstar": 0.0010637861,
        "meta_mean_motion_dot": 1.653e-05,
        "meta_mean_motion_ddot": 0,
        "tle_line1": "1 31522U 99025BXM 25340.33718606  .00001653  00000+0  10638-2 0  9990",
        "tle_line2": "2 31522  98.7082 358.8132 0043095 218.6501 141.1580 14.03982207949067"
      },
      "geometry": {
        "type": "Point",
        "coordinates": [
          23.281588532894176,
          -69.50641787090747
        ]
      }
    },
    {
      "type": "Feature",
      "properties": {
        "norad_id": 31523,
        "name": "FENGYUN 1C DEB",
        "group": "fengyun-1c-debris",
        "lat": -79.57750088923774,
        "lon": 85.21960750866288,
        "alt_km": 877.6857542500111,
        "timestamp": "2025-12-06T14:35:37.409521+00:00",
        "meta_object_name": "FENGYUN 1C DEB",
        "meta_object_id": "1999-025BXN",
        "meta_epoch": "2025-12-05T22:35:49.152768",
        "meta_mean_motion": 14.13858964,
        "meta_eccentricity": 0.00392307,
        "meta_inclination": 98.7584,
        "meta_ra_of_asc_node": 27.6255,
        "meta_arg_of_pericenter": 128.9626,
        "meta_mean_anomaly": 355.8068,
        "meta_ephemeris_type": 0,
        "meta_classification_type": "U",
        "meta_norad_cat_id": 31523,
        "meta_element_set_no": 999,
        "meta_rev_at_epoch": 95911,
        "meta_bstar": 5.1239134e-05,
        "meta_mean_motion_dot": 5.5e-07,
        "meta_mean_motion_ddot": 0,
        "tle_line1": "1 31523U 99025BXN 25339.94154112  .00000055  00000+0  51239-4 0  9991",
        "tle_line2": "2 31523  98.7584  27.6255 0039230 128.9626 355.8068 14.13858964959114"
      },
      "geometry": {
        "type": "Point",
        "coordinates": [
          85.21960750866288,
          -79.57750088923774
        ]
      }
    },
    {
      "type": "Feature",
      "properties": {
        "norad_id": 31527,
        "name": "FENGYUN 1C DEB",
        "group": "fengyun-1c-debris",
        "lat": 1.0172452674965486,
        "lon": -32.78605250355777,
        "alt_km": 1413.373710612932,
        "timestamp": "2025-12-06T14:35:37.409531+00:00",
        "meta_object_name": "FENGYUN 1C DEB",
        "meta_object_id": "1999-025BXS",
        "meta_epoch": "2025-11-28T16:57:37.524384",
        "meta_mean_motion": 13.23385857,
        "meta_eccentricity": 0.04495652,
        "meta_inclination": 98.8931,
        "meta_ra_of_asc_node": 140.2922,
        "meta_arg_of_pericenter": 334.6734,
        "meta_mean_anomaly": 23.2945,
        "meta_ephemeris_type": 0,
        "meta_classification_type": "U",
        "meta_norad_cat_id": 31527,
        "meta_element_set_no": 999,
        "meta_rev_at_epoch": 90004,
        "meta_bstar": 0.00062155533,
        "meta_mean_motion_dot": 4.13e-06,
        "meta_mean_motion_ddot": 0,
        "tle_line1": "1 31527U 99025BXS 25332.70668431  .00000413  00000+0  62156-3 0  9993",
        "tle_line2": "2 31527  98.8931 140.2922 0449565 334.6734  23.2945 13.23385857900044"
      },
      "geometry": {
        "type": "Point",
        "coordinates": [
          -32.78605250355777,
          1.0172452674965486
        ]
      }
    },
    {
      "type": "Feature",
      "properties": {
        "norad_id": 31531,
        "name": "FENGYUN 1C DEB",
        "group": "fengyun-1c-debris",
        "lat": 44.59999259715092,
        "lon": -146.09189009772356,
        "alt_km": 922.9367217394847,
        "timestamp": "2025-12-06T14:35:37.409542+00:00",
        "meta_object_name": "FENGYUN 1C DEB",
        "meta_object_id": "1999-025BXW",
        "meta_epoch": "2025-12-03T20:42:43.358112",
        "meta_mean_motion": 14.3554776,
        "meta_eccentricity": 0.0244077,
        "meta_inclination": 98.3841,
        "meta_ra_of_asc_node": 22.8746,
        "meta_arg_of_pericenter": 295.232,
        "meta_mean_anomaly": 62.3747,
        "meta_ephemeris_type": 0,
        "meta_classification_type": "U",
        "meta_norad_cat_id": 31531,
        "meta_element_set_no": 999,
        "meta_rev_at_epoch": 63807,
        "meta_bstar": 0.0015833,
        "meta_mean_motion_dot": 6.351e-05,
        "meta_mean_motion_ddot": 0,
        "tle_line1": "1 31531U 99025BXW 25337.86300183  .00006351  00000+0  15833-2 0  9993",
        "tle_line2": "2 31531  98.3841  22.8746 0244077 295.2320  62.3747 14.35547760638079"
      },
      "geometry": {
        "type": "Point",
        "coordinates": [
          -146.09189009772356,
          44.59999259715092
        ]
      }
    },
    {
      "type": "Feature",
      "properties": {
        "norad_id": 31533,
        "name": "FENGYUN 1C DEB",
        "group": "fengyun-1c-debris",
        "lat": 60.36031002546298,
        "lon": 68.7014103447747,
        "alt_km": 810.6356602166852,
        "timestamp": "2025-12-06T14:35:37.409552+00:00",
        "meta_object_name": "FENGYUN 1C DEB",
        "meta_object_id": "1999-025BXY",
        "meta_epoch": "2025-12-05T11:07:55.407936",
        "meta_mean_motion": 14.27604696,
        "meta_eccentricity": 0.00660274,
        "meta_inclination": 98.9606,
        "meta_ra_of_asc_node": 231.4297,
        "meta_arg_of_pericenter": 10.5172,
        "meta_mean_anomaly": 349.7371,
        "meta_ephemeris_type": 0,
        "meta_classification_type": "U",
        "meta_norad_cat_id": 31533,
        "meta_element_set_no": 999,
        "meta_rev_at_epoch": 66019,
        "meta_bstar": 0.00073166957,
        "meta_mean_motion_dot": 1.797e-05,
        "meta_mean_motion_ddot": 0,
        "tle_line1": "1 31533U 99025BXY 25339.46383574  .00001797  00000+0  73167-3 0  9992",
        "tle_line2": "2 31533  98.9606 231.4297 0066027  10.5172 349.7371 14.27604696660191"
      },
      "geometry": {
        "type": "Point",
        "coordinates": [
          68.7014103447747,
          60.36031002546298
        ]
      }
    }
  ]
}